STARLINK-36097          
1 67091U 25298S   26200.81681734  .00072196  00000+0  15675-2 0  9997
2 67091  69.9924  21.0602 0009180 203.2460 156.8308 15.43960329 33515
STARLINK-35792          
1 67092U 25298T   26200.79965870  .00001414  00000+0  12624-3 0  9998
2 67092  70.0013  41.4625 0002262 267.1064  92.9836 14.98336440 33002
STARLINK-35784          
1 67093U 25298U   26200.83286293  .00002176  00000+0  19005-3 0  9995
2 67093  70.0011  41.1792 0002533 271.5590  88.5279 14.98333544 33012
STARLINK-36202          
1 67094U 25298V   26200.82453912  .00005127  00000+0  43717-3 0  9995
2 67094  70.0012  41.1506 0002820 267.5909  92.4927 14.98328500 33015
STARLINK-36227          
1 67095U 25298W   26200.84554948  .00001792  00000+0  15792-3 0  9995
2 67095  70.0013  41.2208 0002554 261.1155  98.9715 14.98335801 33012
STARLINK-36228          
1 67096U 25298X   26200.79114815  .00002876  00000+0  24870-3 0  9996
2 67096  70.0012  41.4259 0002805 267.8567  92.2271 14.98339232 33004
STARLINK-36222          
1 67097U 25298Y   26200.80366839  .00001787  00000+0  15750-3 0  9991
2 67097  70.0015  41.4698 0002490 271.5892  88.4982 14.98334117 33001
STARLINK-36205          
1 67098U 25298Z   26200.84120873  .00001017  00000+0  92982-4 0  9991
2 67098  70.0023  41.2112 0002336 270.6032  89.4860 14.98329975 33018
STARLINK-36193          
1 67099U 25298AA  26200.82885961  .00001827  00000+0  16090-3 0  9990
2 67099  70.0013  41.1770 0002440 261.5063  98.5819 14.98329492 33015
STARLINK-36215          
1 67100U 25298AB  26200.84955918  .00002532  00000+0  21988-3 0  9991
2 67100  70.0015  41.2300 0002571 266.5721  93.5144 14.98338462 33014
STARLINK-36200          
1 67101U 25298AC  26200.80802916  .00002468  00000+0  21460-3 0  9990
2 67101  70.0016  41.4921 0002711 262.1368  97.9483 14.98330059 33009
STARLINK-36255          
1 67102U 25299A   26200.89227200  .00008360  00000+0  31292-3 0  9999
2 67102  43.0016 142.4946 0002207 289.6753  70.3861 15.27586340 33331
STARLINK-36256          
1 67103U 25299B   26200.88584356  .00008690  00000+0  32485-3 0  9998
2 67103  43.0021 142.4504 0000927 290.6194  69.4558 15.27589612 33333
STARLINK-36258          
1 67104U 25299C   26200.57304557  .00005737  00000+0  21785-3 0  9998
2 67104  43.0017 144.3944 0001207 281.3286  78.7430 15.27578925 33280
STARLINK-36261          
1 67105U 25299D   26200.88841579  .00006002  00000+0  22741-3 0  9992
2 67105  43.0016 142.4701 0001048 268.6357  91.4375 15.27584372 33339
STARLINK-36259          
1 67106U 25299E   26200.86014502  .00006014  00000+0  22785-3 0  9990
2 67106  42.9999 142.2485 0001004 266.0504  94.0233 15.27586962 33332
STARLINK-36196          
1 67107U 25299F   26200.88969891  .00007703  00000+0  28910-3 0  9995
2 67107  43.0023 142.4759 0001035 282.1241  77.9494 15.27588003 33337
STARLINK-36208          
1 67108U 25299G   26200.53064169  .00004361  00000+0  16785-3 0  9996
2 67108  42.9982 144.0720 0000346 297.2981  62.7835 15.27585271 33287
STARLINK-35764          
1 67109U 25299H   26200.87428025  .00026292  00000+0  96024-3 0  9990
2 67109  43.0001 142.3533 0000555 244.9984 115.0811 15.27624485 34423
STARLINK-35781          
1 67110U 25299J   26200.83971337  .00020577  00000+0  75410-3 0  9993
2 67110  43.0005 142.9593 0001369 278.4286  81.6411 15.27627996 33324
STARLINK-35875          
1 67111U 25299K   26200.54477183  .00003750  00000+0  14570-3 0  9996
2 67111  43.0018 144.1791 0001207 280.1313  79.9402 15.27584245 33289
STARLINK-35906          
1 67112U 25299L   26200.24996538  .00006799  00000+0  25630-3 0  9999
2 67112  43.0015 146.2689 0001513 272.4612  87.6067 15.27590597 33237
STARLINK-35789          
1 67113U 25299M   26200.57046863  .00007792  00000+0  29232-3 0  9999
2 67113  43.0090 144.3739 0003674 265.7069  94.3363 15.27586720 33289
STARLINK-36180          
1 67114U 25299N   26200.56918671  .00005830  00000+0  22114-3 0  9997
2 67114  43.0025 144.3609 0001478 270.8981  89.1701 15.27589404 33284
STARLINK-35892          
1 67115U 25299P   26200.27809336  .00005355  00000+0  20394-3 0  9993
2 67115  43.0000 145.6210 0000671 268.2283  91.8491 15.27583170 33246
STARLINK-35738          
1 67116U 25299Q   26200.52936146  .00020598  00000+0  75626-3 0  9996
2 67116  42.9985 144.0643 0000765 282.4613  77.6153 15.27566175 33286
STARLINK-35674          
1 67117U 25299R   26200.88198840  .00005699  00000+0  21642-3 0  9991
2 67117  43.0011 142.4099 0000932 264.9841  95.0904 15.27585690 33337
STARLINK-35701          
1 67118U 25299S   26200.86785978  .00007404  00000+0  27813-3 0  9996
2 67118  42.9999 142.3019 0000924 268.1643  91.9103 15.27601590 33333
STARLINK-36179          
1 67119U 25299T   26200.87813412  .00005134  00000+0  19592-3 0  9996
2 67119  43.0015 142.3811 0000814 262.8080  97.2679 15.27584601 33339
STARLINK-36217          
1 67120U 25299U   26200.25382522  .00005134  00000+0  19595-3 0  9996
2 67120  43.0012 146.2971 0001447 268.8299  91.2387 15.27579596 33235
