OBJECT_NAME,OBJECT_ID,EPOCH,MEAN_MOTION,ECCENTRICITY,INCLINATION,RA_OF_ASC_NODE,ARG_OF_PERICENTER,MEAN_ANOMALY,EPHEMERIS_TYPE,CLASSIFICATION_TYPE,NORAD_CAT_ID,ELEMENT_SET_NO,REV_AT_EPOCH,BSTAR,MEAN_MOTION_DOT,MEAN_MOTION_DDOT
STARLINK-36097,2025-298S,2026-07-19T19:36:13.018176,15.43960329,.000918,69.9924,21.0602,203.2460,156.8308,0,U,67091,999,3351,.15675E-2,.72196E-3,0
STARLINK-35792,2025-298T,2026-07-19T19:11:30.511680,14.98336440,.0002262,70.0013,41.4625,267.1064,92.9836,0,U,67092,999,3300,.12624E-3,.1414E-4,0
STARLINK-35784,2025-298U,2026-07-19T19:59:19.357152,14.98333544,.0002533,70.0011,41.1792,271.5590,88.5279,0,U,67093,999,3301,.19005E-3,.2176E-4,0
STARLINK-36202,2025-298V,2026-07-19T19:47:20.179968,14.98328500,.000282,70.0012,41.1506,267.5909,92.4927,0,U,67094,999,3301,.43717E-3,.5127E-4,0
STARLINK-36227,2025-298W,2026-07-19T20:17:35.475072,14.98335801,.0002554,70.0013,41.2208,261.1155,98.9715,0,U,67095,999,3301,.15792E-3,.1792E-4,0
STARLINK-36228,2025-298X,2026-07-19T18:59:15.200160,14.98339232,.0002805,70.0012,41.4259,267.8567,92.2271,0,U,67096,999,3300,.2487E-3,.2876E-4,0
STARLINK-36222,2025-298Y,2026-07-19T19:17:16.948896,14.98334117,.000249,70.0015,41.4698,271.5892,88.4982,0,U,67097,999,3300,.1575E-3,.1787E-4,0
STARLINK-36205,2025-298Z,2026-07-19T20:11:20.434272,14.98329975,.0002336,70.0023,41.2112,270.6032,89.4860,0,U,67098,999,3301,.92982E-4,.1017E-4,0
STARLINK-36193,2025-298AA,2026-07-19T19:53:33.470304,14.98329492,.000244,70.0013,41.1770,261.5063,98.5819,0,U,67099,999,3301,.1609E-3,.1827E-4,0
STARLINK-36215,2025-298AB,2026-07-19T20:23:21.913152,14.98338462,.0002571,70.0015,41.2300,266.5721,93.5144,0,U,67100,999,3301,.21988E-3,.2532E-4,0
STARLINK-36200,2025-298AC,2026-07-19T19:23:33.719424,14.98330059,.0002711,70.0016,41.4921,262.1368,97.9483,0,U,67101,999,3300,.2146E-3,.2468E-4,0
STARLINK-36255,2025-299A,2026-07-19T21:24:52.300800,15.27586340,.0002207,43.0016,142.4946,289.6753,70.3861,0,U,67102,999,3333,.31292E-3,.836E-4,0
STARLINK-36256,2025-299B,2026-07-19T21:15:36.883584,15.27589612,.0000927,43.0021,142.4504,290.6194,69.4558,0,U,67103,999,3333,.32485E-3,.869E-4,0
STARLINK-36258,2025-299C,2026-07-19T13:45:11.137248,15.27578925,.0001207,43.0017,144.3944,281.3286,78.7430,0,U,67104,999,3328,.21785E-3,.5737E-4,0
STARLINK-36261,2025-299D,2026-07-19T21:19:19.124256,15.27584372,.0001048,43.0016,142.4701,268.6357,91.4375,0,U,67105,999,3333,.22741E-3,.6002E-4,0
STARLINK-36259,2025-299E,2026-07-19T20:38:36.529728,15.27586962,.0001004,42.9999,142.2485,266.0504,94.0233,0,U,67106,999,3333,.22785E-3,.6014E-4,0
STARLINK-36196,2025-299F,2026-07-19T21:21:09.985824,15.27588003,.0001035,43.0023,142.4759,282.1241,77.9494,0,U,67107,999,3333,.2891E-3,.7703E-4,0
STARLINK-36208,2025-299G,2026-07-19T12:44:07.442016,15.27585271,.0000346,42.9982,144.0720,297.2981,62.7835,0,U,67108,999,3328,.16785E-3,.4361E-4,0
STARLINK-35764,2025-299H,2026-07-19T20:58:57.813600,15.27624485,.0000555,43.0001,142.3533,244.9984,115.0811,0,U,67109,999,3442,.96024E-3,.26292E-3,0
STARLINK-35781,2025-299J,2026-07-19T20:09:11.235168,15.27627996,.0001369,43.0005,142.9593,278.4286,81.6411,0,U,67110,999,3332,.7541E-3,.20577E-3,0
STARLINK-35875,2025-299K,2026-07-19T13:04:28.286112,15.27584245,.0001207,43.0018,144.1791,280.1313,79.9402,0,U,67111,999,3328,.1457E-3,.375E-4,0
STARLINK-35906,2025-299L,2026-07-19T05:59:57.008832,15.27590597,.00015139,43.0015,146.2689,272.4612,87.6067,0,U,67112,999,3323,.25629537E-3,.6799E-4,0
STARLINK-35789,2025-299M,2026-07-19T13:41:28.489632,15.27586720,.0003674,43.0090,144.3739,265.7069,94.3363,0,U,67113,999,3328,.29232E-3,.7792E-4,0
STARLINK-36180,2025-299N,2026-07-19T13:39:37.731744,15.27589404,.0001478,43.0025,144.3609,270.8981,89.1701,0,U,67114,999,3328,.22114E-3,.583E-4,0
STARLINK-35892,2025-299P,2026-07-19T06:40:27.266304,15.27583170,.00006713,43.0000,145.6210,268.2283,91.8491,0,U,67115,999,3324,.20393516E-3,.5355E-4,0
STARLINK-35738,2025-299Q,2026-07-19T12:42:16.830144,15.27566175,.0000765,42.9985,144.0643,282.4613,77.6153,0,U,67116,999,3328,.75626E-3,.20598E-3,0
STARLINK-35674,2025-299R,2026-07-19T21:10:03.797760,15.27585690,.0000932,43.0011,142.4099,264.9841,95.0904,0,U,67117,999,3333,.21642E-3,.5699E-4,0
STARLINK-35701,2025-299S,2026-07-19T20:49:43.084992,15.27601590,.0000924,42.9999,142.3019,268.1643,91.9103,0,U,67118,999,3333,.27813E-3,.7404E-4,0
STARLINK-36179,2025-299T,2026-07-19T21:04:30.787968,15.27584601,.0000814,43.0015,142.3811,262.8080,97.2679,0,U,67119,999,3333,.19592E-3,.5134E-4,0
STARLINK-36217,2025-299U,2026-07-19T06:05:30.499008,15.27579596,.00014471,43.0012,146.2971,268.8299,91.2387,0,U,67120,999,3323,.19594622E-3,.5134E-4,0
